0 FENGYUN 1C DEB
1 30701U 99025ARK 13282.80175009 -.00000006  00000-0  20384-4 0  6560
2 30701 098.9378 255.3015 0035785 092.7785 024.0460 14.13705741342899
0 FENGYUN 1C DEB
1 30701U 99025ARK 13283.85393567  .00000049  00000-0  49310-4 0  6574
2 30701 098.9379 256.3532 0035775 089.8763 338.9032 14.13705318343047
0 FENGYUN 1C DEB
1 30701U 99025ARK 13285.21009038  .00000060  00000-0  54910-4 0  6589
2 30701 098.9381 257.7086 0035758 086.1564 040.7173 14.13705337343235
0 FENGYUN 1C DEB
1 30701U 99025ARK 13286.61112461 -.00000001  00000-0  22830-4 0  6592
2 30701 098.9383 259.1089 0035724 082.3119 330.9322 14.13706133343430
0 FENGYUN 1C DEB
1 30701U 99025ARK 13288.18279282 -.00000077  00000-0 -17021-4 0  6603
2 30701 098.9387 260.6796 0035680 077.9846 049.5618 14.13707164343654
0 FENGYUN 1C DEB
1 30701U 99025ARK 13289.39129405 -.00000084  00000-0 -20717-4 0  6613
2 30701 098.9391 261.8873 0035651 074.6429 079.9597 14.13707162343827
0 FENGYUN 1C DEB
1 30701U 99025ARK 13290.64606934 -.00000010  00000-0  18403-4 0  6628
2 30701 098.9394 263.1414 0035633 071.1732 345.8651 14.13706478344001
0 FENGYUN 1C DEB
1 30701U 99025ARK 13291.92097163  .00000062  00000-0  55979-4 0  6634
2 30701 098.9397 264.4156 0035603 067.6528 354.1955 14.13705883344189
0 FENGYUN 1C DEB
1 30701U 99025ARK 13293.20658230  .00000071  00000-0  60856-4 0  6646
2 30701 098.9400 265.7007 0035551 064.1187 057.0039 14.13705950344365
0 FENGYUN 1C DEB
1 30701U 99025ARK 13294.41606112  .00000022  00000-0  34879-4 0  6655
2 30701 098.9400 266.9098 0035497 060.7680 092.3793 14.13706710344530
0 FENGYUN 1C DEB
1 30701U 99025ARK 13295.47178900 -.00000035  00000-0  50768-5 0  6663
2 30701 098.9400 267.9651 0035453 057.8313 065.2857 14.13707367344683
